{"fetched_at":"2026-07-10T07:59:11.530Z","source":"https://celestrak.org/NORAD/elements/gp.php?NAME=NUSAT&FORMAT=JSON","constellation":"satellogic","records":[{"OBJECT_NAME":"NUSAT-47","OBJECT_ID":"2025-276CF","EPOCH":"2026-07-08T18:01:52.007232","CLASSIFICATION_TYPE":"U","MEAN_MOTION":15.20538982,"ECCENTRICITY":0.00002775,"INCLINATION":97.4181,"RA_OF_ASC_NODE":263.0192,"ARG_OF_PERICENTER":335.2598,"MEAN_ANOMALY":24.8624,"EPHEMERIS_TYPE":0,"NORAD_CAT_ID":66743,"ELEMENT_SET_NO":999,"REV_AT_EPOCH":3370,"BSTAR":0.0002004599,"MEAN_MOTION_DOT":0.00004317,"MEAN_MOTION_DDOT":0},{"OBJECT_NAME":"NUSAT-53 (JANE GOODALL)","OBJECT_ID":"2026-067S","EPOCH":"2026-07-08T21:02:54.300768","CLASSIFICATION_TYPE":"U","MEAN_MOTION":15.18807355,"ECCENTRICITY":0.00013709,"INCLINATION":97.4566,"RA_OF_ASC_NODE":148.0797,"ARG_OF_PERICENTER":9.9354,"MEAN_ANOMALY":350.1907,"EPHEMERIS_TYPE":0,"NORAD_CAT_ID":68432,"ELEMENT_SET_NO":999,"REV_AT_EPOCH":1523,"BSTAR":0.00016829406,"MEAN_MOTION_DOT":0.00003434,"MEAN_MOTION_DDOT":0},{"OBJECT_NAME":"NUSAT-54 (BRANCA MARQUES)","OBJECT_ID":"2026-067AC","EPOCH":"2026-07-09T14:09:54.376416","CLASSIFICATION_TYPE":"U","MEAN_MOTION":15.17961299,"ECCENTRICITY":0.0004477,"INCLINATION":97.4547,"RA_OF_ASC_NODE":148.6351,"ARG_OF_PERICENTER":18.3384,"MEAN_ANOMALY":341.801,"EPHEMERIS_TYPE":0,"NORAD_CAT_ID":68442,"ELEMENT_SET_NO":999,"REV_AT_EPOCH":1533,"BSTAR":0.00016487,"MEAN_MOTION_DOT":0.00003281,"MEAN_MOTION_DDOT":0}]}
